IRIDIUM 36 [-]          
1 24967U 97056C   24034.91409085  .00000582  00000+0  19129-3 0  9993
2 24967  86.3968  22.6262 0002196  93.0704 267.0745 14.36609305380516
IRIDIUM 38 [-]          
1 25043U 97069E   24034.68511092  .00000437  00000+0  14073-3 0  9991
2 25043  86.3921  83.1880 0001595  26.6232 333.5047 14.37076488374191
IRIDIUM 44 [-]          
1 25078U 97077B   24034.82777279  .00000568  00000+0  17701-3 0  9991
2 25078  86.3913  71.9449 0001520 147.4666 212.6626 14.39187927371850
IRIDIUM 24 [-]          
1 25105U 97082B   24034.80351511  .00000588  00000+0  17712-3 0  9997
2 25105  86.3907 291.7873 0009513 291.1217  68.8965 14.40966501371274
IRIDIUM 51 [-]          
1 25262U 98018A   24034.80457667  .00016618  00000+0  86247-3 0  9990
2 25262  86.3957 295.3569 0153960 317.6547  41.2884 15.06215879371151
